[{"OBJECT_NAME":"SPAWAR-CAL-O","OBJECT_ID":"2018-099J","EPOCH":"2026-03-09T17:45:15.080832","MEAN_MOTION":15.31356755,"ECCENTRICITY":0.00072392,"INCLINATION":97.4452,"RA_OF_ASC_NODE":132.0993,"ARG_OF_PERICENTER":285.067,"MEAN_ANOMALY":74.977,"EPHEMERIS_TYPE":0,"CLASSIFICATION_TYPE":"U","NORAD_CAT_ID":43766,"ELEMENT_SET_NO":999,"REV_AT_EPOCH":39828,"BSTAR":0.00069663212,"MEAN_MOTION_DOT":0.00021069,"MEAN_MOTION_DDOT":0},{"OBJECT_NAME":"STARLINK-32794","OBJECT_ID":"2025-019R","EPOCH":"2026-03-09T01:46:50.688192","MEAN_MOTION":15.2759537,"ECCENTRICITY":6.306e-5,"INCLINATION":42.9983,"RA_OF_ASC_NODE":92.7239,"ARG_OF_PERICENTER":293.8588,"MEAN_ANOMALY":66.2197,"EPHEMERIS_TYPE":0,"CLASSIFICATION_TYPE":"U","NORAD_CAT_ID":62844,"ELEMENT_SET_NO":999,"REV_AT_EPOCH":6215,"BSTAR":0.0013181805,"MEAN_MOTION_DOT":0.00036207,"MEAN_MOTION_DDOT":0}]
